STARLINK-2148_new
1 17737C 21017R   21326.13733020 -.00001425  00000-0 -95465-4 0  3263
2 17737  53.0542 338.1134 0001674  52.7705 234.6614 15.06396689    16
STARLINK-2148_old
1 27737C 21017R   21325.16266919 -.00003098  00000-0 -20764-3 0  3259
2 27737  53.0545 342.4889 0001618  52.6007 346.3216 15.06389936    12
